{"created": 1761843738.71587, "nodes": [{"id": 33433047, "lat": 51.3403565, "lon": -1.7624887, "tags": {"amenity": "pub", "fhrs:id": "260452", "name": "Moonrakers", "wikidata": "Q26646445"}}, {"id": 3041267834, "lat": 51.3483306, "lon": -1.7172118, "tags": {"addr:city": "Easton Royal, Pewsey", "addr:housename": "The Bruce Arms", "addr:postcode": "SN9 5LR", "addr:street": "Easton Road", "amenity": "pub", "fhrs:id": "261541", "name": "The Bruce Arms", "phone": "+44 1672 810216", "source": "Personal Knowledge", "website": "http://www.thebrucearms.net/"}}, {"id": 4388121451, "lat": 51.3395661, "lon": -1.7643739, "tags": {"addr:city": "Pewsey", "addr:housenumber": "14", "addr:postcode": "SN9 5AQ", "addr:street": "High Street", "amenity": "cafe", "name": "The Little Lunchbox Caf\u00e9", "opening_hours": "Mo-We 08:00-16:00; Th-Sa 09:00-19:30; Su off"}}, {"id": 286666968, "lat": 51.1774659, "lon": -1.7580923, "tags": {"amenity": "restaurant", "brand": "Pizza Hut", "brand:wikidata": "Q191615", "brand:wikipedia": "en:Pizza Hut", "cuisine": "pizza", "fhrs:id": "260169", "name": "Pizza Hut", "opening_hours": "Mo-Su 11:30-22:00", "operator": "Pizza Hut", "outdoor_seating": "yes", "takeaway": "yes", "website": "https://www.pizzahut.co.uk/restaurants/find/details/amesbury"}}, {"id": 286666971, "lat": 51.1770136, "lon": -1.7578509, "tags": {"addr:city": "Amesbury", "addr:country": "GB", "addr:postcode": "SP4 7SQ", "addr:street": "Mid Summer Place", "amenity": "restaurant", "brand": "Harvester", "brand:wikidata": "Q5676915", "brand:wikipedia": "en:Harvester (restaurant)", "cuisine": "american", "fhrs:id": "261186", "name": "The Amesbury Archer", "website": "https://www.harvester.co.uk/restaurants/southwest/theamesburyarchersalisbury"}}, {"id": 2459541789, "lat": 51.1767601, "lon": -1.7585831, "tags": {"amenity": "cafe", "brand": "Costa", "brand:wikidata": "Q608845", "brand:wikipedia": "en:Costa Coffee", "cuisine": "coffee_shop", "drive_through": "yes", "fhrs:id": "520914", "name": "Costa", "takeaway": "yes"}}, {"id": 3014261657, "lat": 51.1767658, "lon": -1.7591666, "tags": {"amenity": "fast_food", "brand": "McDonald's", "brand:wikidata": "Q38076", "brand:wikipedia": "en:McDonald's", "check_date": "2024-08-31", "check_date:opening_hours": "2024-08-31", "contact:website": "https://www.mcdonalds.com/gb/en-gb/location/amesbury/amesbury/solstice-park/8261418.html", "cuisine": "burger", "drive_through": "yes", "fhrs:id": "655405", "internet_access": "wlan", "name": "McDonald's", "opening_hours": "Mo-Su 00:00-24:00", "phone": "+44 1980 626245", "self_service": "yes", "takeaway": "yes"}}, {"id": 3696589649, "lat": 51.17666, "lon": -1.7603747, "tags": {"addr:city": "Amesbury", "addr:country": "GB", "addr:housename": "Toby Carvery", "addr:postcode": "SP4 7SQ", "addr:street": "Mid Summer Place", "amenity": "restaurant", "brand": "Toby Carvery", "brand:wikidata": "Q7811777", "brand:wikipedia": "en:Toby Carvery", "contact:website": "https://www.tobycarvery.co.uk/restaurants/south-west/amesburywiltshire", "cuisine": "british", "fhrs:id": "812699", "name": "Toby Carvery", "phone": "+441980676746"}}, {"id": 5777231216, "lat": 51.1774123, "lon": -1.7569434, "tags": {"amenity": "fuel", "maxheight": "4.7"}}, {"id": 10846177807, "lat": 51.1773422, "lon": -1.7603921, "tags": {"amenity": "fast_food", "brand": "Greggs", "brand:wikidata": "Q3403981", "cuisine": "sandwich;bakery", "fhrs:id": "1542892", "name": "Greggs", "takeaway": "yes"}}, {"id": 10846177808, "lat": 51.1774215, "lon": -1.7596814, "tags": {"amenity": "fast_food", "brand": "Taco Bell", "brand:wikidata": "Q752941", "cuisine": "tex-mex", "fhrs:id": "1537466", "name": "Taco Bell", "takeaway": "yes", "website": "https://locations.tacobell.co.uk/amesbury/mid-summer-place.html"}}, {"id": 314044199, "lat": 51.423381, "lon": -1.725924, "tags": {"amenity": "pub", "name": "Queens Head", "smoking": "isolated", "wikidata": "Q26562774"}}, {"id": 411093172, "lat": 51.4792108, "lon": -1.6207445, "tags": {"amenity": "toilets", "fee": "no", "fixme": "Are these still open? Building is now a heritage centre.", "wheelchair": "limited"}}, {"id": 1305559336, "lat": 51.47927, "lon": -1.62044, "tags": {"amenity": "pub", "brewery": "various", "check_date": "2025-08-10", "fhrs:id": "263470", "internet_access": "wlan", "internet_access:fee": "customers", "name": "The Crown", "outdoor_seating": "yes", "payment:cash": "yes", "payment:credit_cards": "yes", "payment:debit_cards": "yes", "sport": "soccer;sky", "toilets": "yes", "toilets:wheelchair": "no", "wheelchair": "limited", "wikidata": "Q26285686"}}, {"id": 1305559361, "lat": 51.4803492, "lon": -1.6204345, "tags": {"amenity": "pub", "name": "The Blue Boar", "wikidata": "Q26647118"}}, {"id": 1781894022, "lat": 51.4233942, "lon": -1.7309207, "tags": {"amenity": "restaurant", "name": "Coles Bar & Restaraunt"}}, {"id": 1820972340, "lat": 51.4794487, "lon": -1.6192648, "tags": {"amenity": "cafe"}}, {"id": 1820975559, "lat": 51.478966, "lon": -1.6206368, "tags": {"addr:city": "Marlborough", "addr:housenumber": "6a", "addr:postcode": "SN8 2DU", "addr:street": "The Square", "addr:suburb": "Aldbourne", "amenity": "fast_food", "cuisine": "chinese;thai", "drive_through": "no", "name": "The Aldbourne Kitchen", "opening_hours": "Su 16:30-22:30, Sa 12:30-13:30,16:30-22:30, Mo,We-Fr 16:30-22:30, Fr 12:00-13:30", "phone": "+44 1672 541303"}}, {"id": 1820975809, "lat": 51.4787168, "lon": -1.6211735, "tags": {"amenity": "cafe", "check_date:opening_hours": "2025-08-10", "name": "Aldbourne cafe and deli", "opening_hours:signed": "no"}}, {"id": 3100151833, "lat": 51.4211942, "lon": -1.7288714, "tags": {"addr:city": "Marlborough", "addr:postcode": "SN8 1AA", "addr:street": "The Parade", "amenity": "bar", "name": "The Lamb Inn", "opening_hours": "11:00-23:00", "smoking": "isolated"}}, {"id": 3326427040, "lat": 51.4202164, "lon": -1.7276353, "tags": {"amenity": "cafe", "cuisine": "snacks;sandwich", "name": "Krumbz"}}, {"id": 7782338745, "lat": 51.4214703, "lon": -1.7297733, "tags": {"access": "yes", "amenity": "toilets", "fee": "yes", "unisex": "yes"}}, {"id": 7953927729, "lat": 51.4211386, "lon": -1.7286433, "tags": {"amenity": "restaurant", "fhrs:id": "552085", "name": "Dan's"}}, {"id": 9660287748, "lat": 51.4213114, "lon": -1.729475, "tags": {"amenity": "restaurant", "mobile": "+44 7851 654426", "name": "TJS Brothers at The Bear", "opening_hours": "Mo-Fr 08:30-20:00; Tu-Su 08:00-15:00; Sa 08:00-12:00"}}, {"id": 10689464456, "lat": 51.4794301, "lon": -1.6192081, "tags": {"addr:city": "Aldbourne", "addr:housename": "Time At The Forge", "addr:housenumber": "1", "addr:postcode": "SN8 2DW", "addr:street": "South Street", "amenity": "cafe", "cuisine": "tea_shop;coffee", "description": "Tea Room", "fhrs:id": "1174458", "name": "Tea Room - Time at the Forge", "outdoor_seating": "yes", "phone": "+44 7483 802979", "website": "http://timeattheforge.co.uk/"}}], "ways": [{"id": 254012941, "center_lat": 51.442789, "center_lon": -1.6045219, "tags": {"addr:city": "Marlborough", "addr:postcode": "SN8 2PE", "addr:street": "The Square", "addr:suburb": "Ramsbury", "amenity": "pub", "building": "yes", "contact:facebook": "https://www.facebook.com/thebellramsbury/", "contact:instagram": "https://www.instagram.com/bell_ramsbury", "fhrs:id": "262832", "name": "The Bell", "ref:GB:uprn": "100121323501", "roof:material": "roof_tiles", "roof:shape": "quadruple_saltbox", "website": "https://thebellramsbury.com/"}}, {"id": 617415102, "center_lat": 51.5005504, "center_lon": -1.5973298, "tags": {"addr:city": "Baydon", "addr:postcode": "SN8 2JP", "addr:street": "Ermin Street", "amenity": "restaurant", "building": "yes", "contact:facebook": "https://www.facebook.com/FancyB.Baydon/", "cuisine": "burger;brunch;turkish;dinner;cocktails;real_ales;beer;spirits;wine;kebab", "name": "Fancy B.", "phone": "+44 1672 700986", "smoking": "outside", "website": "https://fancyb.co.uk/"}}, {"id": 1059536801, "center_lat": 51.410452, "center_lon": -1.6193173, "tags": {"amenity": "restaurant", "building": "restaurant", "cuisine": "indian", "delivery": "yes", "name": "The Palm Indian", "smoking": "no", "takeaway": "yes"}}, {"id": 1162632310, "center_lat": 51.3381397, "center_lon": -1.7595151, "tags": {"amenity": "pub", "building": "house", "fhrs:id": "260293", "name": "The Coopers Arms"}}, {"id": 1299072508, "center_lat": 51.3351545, "center_lon": -1.7670614, "tags": {"addr:postcode": "SN9 5HH", "amenity": "fuel", "brand": "Esso", "brand:wikidata": "Q867662", "mapillary": "3063976920486692", "name": "Esso", "opening_hours": "24/7", "operator": "Motor Fuel Group", "operator:website": "https://www.motorfuelgroup.com/locations/pewsey-fs712/", "operator:wikidata": "Q107271358", "survey:date": "2021-06-13"}}, {"id": 237288949, "center_lat": 51.1774748, "center_lon": -1.7589482, "tags": {"alt_name": "Kentucky Fried Chicken", "amenity": "fast_food", "brand": "KFC", "brand:wikidata": "Q524757", "brand:wikipedia": "en:KFC", "building": "yes", "contact:website": "https://www.kfc.co.uk/kfc-near-me/amesbury-solstice-park", "cuisine": "chicken", "drive_through": "yes", "fhrs:id": "520926", "name": "KFC", "takeaway": "yes"}}, {"id": 1098855827, "center_lat": 51.2726689, "center_lon": -1.8005102, "tags": {"addr:housename": "Red Lion Freehouse", "addr:postcode": "SN9 6AQ", "addr:street": "East Chisenbury", "amenity": "pub", "building": "yes", "name": "Red Lion", "operator": "Guy Manning", "website": "redlionfreehouse.com", "wifi": "no", "wikidata": "Q92762246"}}, {"id": 924954246, "center_lat": 51.3535373, "center_lon": -1.8535069, "tags": {"addr:city": "Honeystreet", "addr:postcode": "SN9 5PS", "amenity": "cafe", "building": "yes", "cuisine": "coffee_shop", "fhrs:id": "1048966", "name": "Honeystreet Mill Caf\u00e9", "outdoor_seating": "yes", "website": "https://www.honeystreetmillcafe.co.uk/"}}, {"id": 166743723, "center_lat": 51.4234314, "center_lon": -1.7307857, "tags": {"amenity": "restaurant", "building": "yes", "cuisine": "international", "name": "Coles Bar & Resturant", "outdoor_seating": "no", "smoking": "no", "takeaway": "no"}}, {"id": 268643209, "center_lat": 51.421606, "center_lon": -1.7295729, "tags": {"addr:city": "Marlborough", "addr:street": "Kingsbury Street", "amenity": "restaurant", "building": "yes", "name": "No 48 Tapas & Grill"}}, {"id": 465953205, "center_lat": 51.4205961, "center_lon": -1.7306437, "tags": {"addr:postcode": "SN8 1AA", "amenity": "pub", "building": "yes", "fhrs:id": "261129", "name": "The Green Dragon", "wikidata": "Q26647086"}}, {"id": 465953215, "center_lat": 51.420134, "center_lon": -1.7314342, "tags": {"addr:city": "Marlborough", "addr:postcode": "SN8 1LW", "amenity": "cafe", "brand": "Caff\u00e8 Nero", "brand:wikidata": "Q675808", "brand:wikipedia": "en:Caff\u00e8 Nero", "building": "yes", "check_date": "2024-08-22", "cuisine": "coffee_shop", "fhrs:id": "446444", "name": "Caff\u00e8 Nero", "opening_hours": "Mo-Sa 07:00-18:30; Su 09:00-18:00", "takeaway": "yes", "website": "https://www.caffenero.com/uk/stores/marlborough"}}, {"id": 465960960, "center_lat": 51.4213235, "center_lon": -1.7295049, "tags": {"addr:city": "Marlborough", "addr:postcode": "SN8 1AA", "amenity": "pub", "brand": "Arkells", "brand:wikidata": "Q4791958", "building": "yes", "fhrs:id": "261218", "internet_access": "wlan", "name": "The Bear", "phone": "+44 1672 512134", "rooms": "7", "smoking": "no", "stars": "2", "tourism": "hotel", "website": "https://www.arkells.com/pub/bear-hotel-marlborough.htm", "wikidata": "Q26544946"}}, {"id": 465974972, "center_lat": 51.4215802, "center_lon": -1.7303565, "tags": {"addr:city": "Marlborough", "addr:housenumber": "141", "addr:street": "High Street", "amenity": "cafe", "atm": "yes", "building": "yes", "cuisine": "coffee_shop", "diet:vegan": "yes", "dog": "designated", "name": "Coffi Lab", "outdoor_seating": "yes", "takeaway": "yes", "toilets": "yes", "toilets:access": "customers", "toilets:wheelchair": "yes", "wikidata": "Q26549561"}}, {"id": 465974974, "center_lat": 51.4216407, "center_lon": -1.7301721, "tags": {"addr:housenumber": "143", "addr:postcode": "SN8 1HN", "addr:street": "High Street", "amenity": "cafe", "brand": "Costa", "brand:wikidata": "Q608845", "brand:wikipedia": "en:Costa Coffee", "building": "yes", "cuisine": "coffee_shop", "fhrs:id": "262546", "name": "Costa", "takeaway": "yes"}}, {"id": 465974985, "center_lat": 51.4218919, "center_lon": -1.7303639, "tags": {"addr:housenumber": "7", "amenity": "restaurant", "building": "yes", "name": "Godots"}}, {"id": 465974990, "center_lat": 51.421659, "center_lon": -1.729626, "tags": {"addr:city": "Marlborough", "addr:street": "Kingsbury Street", "amenity": "restaurant", "building": "yes", "cuisine": "indian", "fhrs:id": "261674", "name": "Raj"}}, {"id": 465974996, "center_lat": 51.4217508, "center_lon": -1.7297429, "tags": {"addr:city": "Marlborough", "addr:housenumber": "46", "addr:postcode": "SN8 1JE", "addr:street": "Kingsbury Street", "amenity": "restaurant", "building": "retail", "cuisine": "french", "diet:vegan": "no", "email": "hello@franklynsbistro.co.uk", "fhrs:id": "1411488", "name": "Franklyn's Bistro", "opening_hours": "Su-Tu off; We-Sa 12:00-15:00,18:00-23:00", "phone": "+44 1672 516648", "website": "https://www.franklynsbistro.co.uk/"}}, {"id": 466073790, "center_lat": 51.4214006, "center_lon": -1.7292618, "tags": {"amenity": "restaurant", "building": "yes", "fhrs:id": "261260", "name": "Pinos"}}, {"id": 1272711921, "center_lat": 51.4259906, "center_lon": -1.6991763, "tags": {"amenity": "pub", "building": "yes", "name": "Horse Shoe", "wikidata": "Q26478759"}}]}