{"created": 1761660334.3071811, "nodes": [{"id": 469860484, "lat": 51.5882494, "lon": -2.997055, "tags": {"addr:city": "Newport", "addr:country": "GB", "addr:housenumber": "35", "addr:postcode": "NP20 1GF", "addr:street": "High Street", "amenity": "fast_food", "brand": "McDonald's", "brand:wikidata": "Q38076", "brand:wikipedia": "en:McDonald's", "check_date": "2024-08-31", "check_date:opening_hours": "2024-08-31", "contact:phone": "+44 1633 244947", "contact:website": "https://www.mcdonalds.com/gb/en-gb/location/newport/newport/35-high-street/8260236.html", "cuisine": "burger", "drive_through": "no", "fhrs:id": "631487", "indoor_seating": "yes", "internet_access": "wlan", "name": "McDonald's", "opening_hours": "Mo-Su 06:00-22:30", "self_service": "yes", "takeaway": "yes"}}, {"id": 492079347, "lat": 51.5893428, "lon": -2.9973446, "tags": {"addr:city": "Newport", "addr:housenumber": "53", "addr:postcode": "NP20 1GA", "addr:street": "High Street", "air_conditioning": "no", "amenity": "pub", "brand": "Samuel Smith", "brand:wikidata": "Q7412675", "brewery": "Samuel Smith", "check_date": "2025-05-16", "contact:facebook": "https://www.facebook.com/pages/Ye-Olde-Murenger-House/159094050773922", "fhrs:id": "622581", "microbrewery": "no", "name": "Ye Olde Murenger House", "name:cy": "Hen Dy Murenger", "opening_hours": "Mo 12:00-23:00; Tu 15:00-20:00; We-Sa 12:00-23:00; Su 12:00-22:30", "operator": "Samuel Smith", "operator:wikidata": "Q7412675", "outdoor_seating": "no", "phone": "+44 1633 263977", "real_ale": "yes", "smoking": "outside", "toilets": "yes", "wikidata": "Q20714224", "wikipedia": "en:Ye Olde Murenger House"}}, {"id": 492079348, "lat": 51.588945, "lon": -2.9980773, "tags": {"addr:city": "Newport", "addr:country": "GB", "addr:housenumber": "10-12", "addr:postcode": "NP20 4AD", "addr:street": "Cambrian Road", "addr:unit": "Unit A7", "amenity": "pub", "brand": "Wetherspoon", "brand:wikidata": "Q6109362", "brand:wikipedia": "en:Wetherspoons", "fhrs:id": "402791", "level": "0", "name": "The John Wallace Linton", "opening_hours": "Mo-Fr 08:00-00:00; Sa 00:00-01:00,08:00-00:00; Su 00:00-01:00,08:00-00:00", "outdoor_seating": "yes", "phone": "+44 1633 251 752", "real_fire": "no", "smoking": "outside", "website": "https://www.jdwetherspoon.com/pubs/all-pubs/wales/newport/the-john-wallace-linton-newport", "wheelchair": "yes"}}, {"id": 537654863, "lat": 51.5886064, "lon": -2.9971232, "tags": {"addr:city": "Newport", "addr:housenumber": "40a", "addr:postcode": "NP20 1GF", "addr:street": "High Street", "amenity": "fast_food", "brand": "Subway", "brand:wikidata": "Q244457", "brand:wikipedia": "en:Subway (restaurant)", "contact:website": "https://restaurants.subway.com/united-kingdom/wa/newport/40a-high-street", "cuisine": "sandwich", "drive_through": "no", "fhrs:id": "187721", "indoor_seating": "yes", "name": "Subway", "opening_hours": "Mo-Tu 07:00-21:00; We 07:00-00:00; Th 07:00-21:00; Fr 08:00-00:00; Sa 00:00-04:00,08:00-00:00; Su 00:00-04:00,10:00-20:00", "outdoor_seating": "no", "takeaway": "yes"}}, {"id": 537867048, "lat": 51.5894721, "lon": -2.9970409, "tags": {"addr:city": "Newport", "addr:housenumber": "14", "addr:postcode": "NP20 1FW", "addr:street": "High Street", "amenity": "pub", "billiards:pool": "1", "brewery": "yes", "check_date": "2024-04-28", "check_date:opening_hours": "2024-08-27", "contact:facebook": "https://www.facebook.com/lepublicspace/", "cuisine": "burger", "diet:vegan": "only", "dog": "yes", "email": "sam@lepub.co.uk", "fhrs:id": "1026231", "food": "yes", "indoor_seating": "yes", "internet_access": "wlan", "internet_access:fee": "customers", "internet_access:ssid": "Le Pub Guest WiFi", "level": "0", "live_music": "yes", "live_music_venue": "yes", "long_name": "Le Public Space", "music": "yes", "name": "Le Pub", "opening_hours": "Mo-Th 14:00-26:00; Fr 14:00-27:00; Sa 12:00-27:00; Su 14:00-26:00", "outdoor_seating": "yes", "payment:credit_cards": "yes", "payment:debit_cards": "yes", "phone": "+44 1633 221477", "real_ale": "no", "smoking": "outside", "sport": "billiards", "start_date": "1992-06-30", "wheelchair": "yes", "wikidata": "Q65066899", "wikipedia": "en:Le Pub"}}, {"id": 1232350675, "lat": 51.5895368, "lon": -2.9957899, "tags": {"addr:city": "Newport", "addr:housenumber": "197", "addr:postcode": "NP20 1DA", "addr:street": "Upper Dock Street", "amenity": "fast_food", "cuisine": "kebab", "drive_through": "no", "name": "Newport Grill", "opening_hours": "Mo-Th 00:00-02:00,16:00-24:00; Fr 00:00-02:00, Sa 16:00-24:00,00:00-03:00,16:00-03:00; Su 00:00-03:00,16:00-24:00", "source": "survey", "website": "https://www.newportgrillonline.co.uk/"}}, {"id": 1241221794, "lat": 51.5878339, "lon": -2.9974922, "tags": {"addr:city": "Newport", "addr:housenumber": "6", "addr:postcode": "NP20 4AL", "addr:street": "Bridge Street", "air_conditioning": "no", "amenity": "restaurant", "brewery": "yes", "cuisine": "thai", "email": "operations@thelambpub.com", "microbrewery": "no", "name": "The Lamb", "opening_hours": "Mo-Th 12:00-23:00; Fr 12:00-00:00; Sa 00:00-01:30,12:00-00:00; Su 00:00-01:30,12:00-00:00", "outdoor_seating": "no", "phone": "+44 7946 061 644", "real_ale": "yes", "source": "survey", "sport": "pool", "toilets": "yes", "website": "https://www.thelambpub.com/"}}, {"id": 1241319547, "lat": 51.5885491, "lon": -2.9976393, "tags": {"addr:city": "Newport", "addr:housenumber": "24", "addr:postcode": "NP20 4AB", "addr:street": "Cambrian Road", "amenity": "fast_food", "check_date": "2021-03-07", "contact:facebook": "https://www.facebook.com/pages/category/Grocery-Store/Charcoal-Grill-Newport-442309592475064/", "cuisine": "kebab", "drive_through": "no", "email": "charcoalgrilnewport@live.com", "fhrs:id": "1199039", "name": "Efe's Grill", "opening_hours": "Mo-Su 00:00-03:00,15:00-00:00", "phone": "+44 1633 251 080", "source": "survey"}}, {"id": 1241319604, "lat": 51.588771, "lon": -2.9975416, "tags": {"addr:city": "Newport", "addr:place": "Newport Arcade", "addr:postcode": "NP20 1GD", "addr:unit": "3-4", "amenity": "cafe", "cuisine": "bistro", "name": "Arcadia Cafe and Bistro", "old_name": "The Pot Cafe", "opening_hours": "Mo Off; Tu-Fr 09:30-15:00; Sa 08:30-15:00; Su 12:00-15:00", "outdoor_seating": "yes"}}, {"id": 1243077959, "lat": 51.5873088, "lon": -2.9970498, "tags": {"addr:city": "Newport", "addr:housenumber": "22-24", "addr:postcode": "NP20 1JD", "addr:street": "Stow Hill", "air_conditioning": "no", "amenity": "pub", "check_date": "2024-04-28", "diet:vegetarian": "yes", "fhrs:id": "622599", "food": "yes", "indoor_seating": "yes", "live_music": "no", "microbrewery": "no", "music": "no", "name": "Pen and Wig", "name:cy": "Pen a Wig", "opening_hours": "Mo-Th 10:00-23:00; Fr-Sa 10:00-00:00; Su 11:00-22:30", "outdoor_seating": "yes", "payment:cash": "yes", "payment:credit_cards": "yes", "payment:debit_cards": "yes", "phone": "+44 1633 666 818", "real_ale": "yes", "real_fire": "no", "smoking": "outside", "source": "survey", "toilets": "yes", "toilets:wheelchair": "no", "website": "https://www.jwbpubs.com/pubs/the-pen-wig", "wheelchair": "no"}}, {"id": 1770564694, "lat": 51.5881016, "lon": -2.9953216, "tags": {"addr:city": "Newport", "addr:housenumber": "18", "addr:postcode": "NP20 1DH", "addr:street": "Upper Dock Street", "amenity": "pub", "check_date": "2019-10-13", "contact:facebook": "https://www.facebook.com/pg/Windsor-Castle-Hotel-275263569316206/", "fhrs:id": "1359762", "live_music": "yes", "name": "The Windsor Castle", "opening_hours": "Mo-Th 11:00-23:30; Fr-Sa 11:00-00:00; Su 12:00-10:30", "phone": "+44 1633 546166", "source": "Local Knowledge"}}, {"id": 2165236125, "lat": 51.6135232, "lon": -3.1037869, "tags": {"addr:city": "Risca", "addr:housenumber": "52", "addr:postcode": "NP11 6HE", "addr:street": "Saint Mary Street", "alt_name": "The Exchange Inn", "amenity": "pub", "name": "Exchange Inn", "opening_hours": "Mo-Th 14:00-23:00; Fr-Sa 12:00-23:30; Su 12:00-22:30", "phone": "+44 1633 612 706", "wikidata": "Q80857347"}}, {"id": 4003718405, "lat": 51.5898462, "lon": -2.998825, "tags": {"access": "yes", "amenity": "toilets", "changing_table": "yes", "fee": "no", "level": "0", "male": "yes", "opening_hours": "Mo-Su 08:00-24:00", "operator": "Transport for Wales", "portable": "no", "toilets:disposal": "flush", "toilets:handwashing": "yes", "toilets:position": "urinal;seated;inside", "wheelchair": "yes"}}, {"id": 5076924551, "lat": 51.5903673, "lon": -3.0539717, "tags": {"addr:city": "Newport", "addr:place": "Wern Industrial Estate", "addr:postcode": "NP10 9FQ", "alt_name": "Tiny Rebel Rogerstone", "amenity": "pub", "cuisine": "roast;british;burger;pub", "name": "Tiny Rebel Brewery Bar", "opening_hours": "Mo-Sa 12:00-23:00; Fr-Sa 09:00-12:00; Su 09:00-23:00", "phone": "+44 7377 414 207", "wikidata": "Q27136461"}}, {"id": 6853756237, "lat": 51.5886965, "lon": -3.0000603, "tags": {"addr:city": "Newport", "addr:housename": "Newport Railway Station", "addr:postcode": "NP20 4AX", "addr:street": "Queensway", "addr:unit": "Unit 1", "amenity": "cafe", "brand": "Costa", "brand:wikidata": "Q608845", "brand:wikipedia": "en:Costa Coffee", "cuisine": "coffee_shop", "fhrs:id": "1171745", "internet_access": "yes", "internet_access:fee": "no", "name": "Costa", "opening_hours": "Mo-Fr 05:00-20:00; Sa 06:00-20:00; Su 07:00-19:00", "outdoor_seating": "yes", "takeaway": "yes", "website": "https://www.costa.co.uk/locations/store-locator/map/#latitude=51.5895843&longitude=-2.9983232"}}, {"id": 6864609032, "lat": 51.5896167, "lon": -2.9968899, "tags": {"addr:city": "Newport", "addr:housenumber": "11", "addr:postcode": "NP20 1FQ", "addr:street": "High Street", "amenity": "restaurant", "cuisine": "indian", "level": "2", "name": "Popadoms", "opening_hours": "Mo-Th 17:00-00:00; Fr 17:00-00:00; Sa 00:00-01:30,17:00-00:00; Su 00:00-01:30,17:00-24:00", "phone": "+44 1633 262557", "website": "http://www.popadoms-newport.com/"}}, {"id": 6871293494, "lat": 51.589202, "lon": -2.9970293, "tags": {"addr:city": "Newport", "addr:housenumber": "6", "addr:postcode": "NP20 4AB", "addr:street": "Market Street", "amenity": "bar", "check_date": "2022-10-10", "contact:facebook": "https://www.facebook.com/Cocosnewport/", "email": "Cocosnewport@gmail.com", "live_music": "yes", "music": "yes", "name": "Cocos Bar", "opening_hours": "Mo off; Tu off; We off; Th off; Fr 15:00-24:00; Sa 00:00-02:00,15:00-24:00; Su 00:00-02:00", "phone": "+44 7861 665 234", "smoking": "outside"}}, {"id": 6871293501, "lat": 51.5896742, "lon": -2.9967722, "tags": {"addr:city": "Newport", "addr:housenumber": "9", "addr:postcode": "NP20 1FQ", "addr:street": "High Street", "air_conditioning": "no", "alt_name": "Carpenters Newport", "amenity": "pub", "billiards:pool": "1", "check_date:opening_hours": "2024-08-27", "microbrewery": "no", "music": "yes", "name": "Carpenter's Arms", "name:cy": "Arfbais y Saer", "opening_hours": "Mo-Th 10:00-23:00; Fr-Sa 10:00-24:00; Su 10:00-14:00", "outdoor_seating": "yes", "phone": "+44 1633 265 444", "real_ale": "yes", "real_fire": "no", "smoking": "outside", "sport": "billiards;table_tennis;darts", "toilets": "yes", "website": "https://www.jwbpubs.com/"}}, {"id": 6871293502, "lat": 51.5896446, "lon": -2.9968435, "tags": {"addr:city": "Newport", "addr:housenumber": "10", "addr:postcode": "NP20 1FQ", "addr:street": "High Street", "amenity": "pub", "check_date": "2022-04-29", "contact:facebook": "https://www.facebook.com/people/McCanns-Rock-N-Ale-Bar/100063561700704/", "fhrs:id": "898151", "live_music": "yes", "live_music_venue": "yes", "music": "yes", "name": "McCann's Rock 'n' Ale Bar", "name:cy": "Bar Roc a Chwrw McCann", "opening_hours": "Mo-Th 12:00-23:00; Fr 12:00-00:00; Sa 00:00-02:00,12:00-02:00; Su 00:00-02:00,12:00-23:00", "outdoor_seating": "yes", "phone": "+44 7592 238194", "real_fire": "no", "sport": "darts", "toilets": "yes"}}, {"id": 6871715020, "lat": 51.5882059, "lon": -2.9967196, "tags": {"addr:city": "Newport", "addr:housenumber": "31", "addr:postcode": "NP20 1GH", "addr:street": "High Street", "amenity": "fast_food", "brand": "Greggs", "brand:wikidata": "Q3403981", "brand:wikipedia": "en:Greggs", "contact:website": "https://www.greggs.co.uk/shop-finder?shop-code=0613", "cuisine": "sandwich;bakery", "diet:vegan": "yes", "drive_through": "no", "fhrs:id": "9061", "indoor_seating": "no", "name": "Greggs", "opening_hours": "Mo-Fr 07:00-18:00; Sa 07:00-17:30", "outdoor_seating": "no", "phone": "+44 1633 660444", "takeaway": "only"}}, {"id": 6872291642, "lat": 51.5885744, "lon": -2.9956743, "tags": {"addr:city": "Newport", "addr:housenumber": "184", "addr:postcode": "NP20 1DG", "addr:street": "Upper Dock Street", "amenity": "fast_food", "cuisine": "fish_and_chips", "drive_through": "no", "name": "Eshaal's Fish and Chips", "opening_hours": "Mo-Th 11:00-21:00; Fr 11:00-00:00; Sa 00:00-03:00,11:00-00:00; Su 00:00-03:00", "phone": "+44 1633 213611", "website": "https://deliveroo.co.uk/menu/newport/newport/eshaals-fish-and-chips"}}, {"id": 6872291650, "lat": 51.5878329, "lon": -2.9948607, "tags": {"addr:city": "Newport", "addr:housenumber": "22-24", "addr:postcode": "NP20 1DL", "addr:street": "Upper Dock Street", "amenity": "pub", "email": "info@potterspub.co.uk", "live_music": "yes", "music": "yes", "name": "The Potters", "opening_hours": "Mo-Th 09:00-23:00; Fr 09:00-00:00; Sa 00:00-01:00,09:00-00:00; Su 00:00-01:00,12:00-22:30", "outdoor_seating": "yes", "phone": "+44 1633 223311", "website": "https://potterspub.co.uk/"}}, {"id": 6873230488, "lat": 51.5886397, "lon": -2.9954707, "tags": {"addr:city": "Newport", "addr:housenumber": "11", "addr:postcode": "NP20 1DF", "addr:street": "Upper Dock Street", "amenity": "cafe", "internet_access": "yes", "name": "The Coffee Shop", "opening_hours": "Mo-Sa 08:30-16:30; Su off", "outdoor_seating": "no", "phone": "+44 1633 254868", "website": "https://www.just-eat.co.uk/restaurants-the-coffee-shop-newport"}}, {"id": 6874316048, "lat": 51.5887092, "lon": -2.9974468, "tags": {"addr:city": "Newport", "addr:housenumber": "43-44", "addr:postcode": "NP20 1GF", "addr:street": "High Street", "amenity": "bar", "fhrs:id": "920441", "live_music": "yes", "name": "Hogarths", "opening_hours": "Mo-Th 11:00-23:00; Fr 11:00-00:00; Sa 00:00-01:00,11:00-00:00; Su 00:00-01:00,11:00-22:30", "outdoor_seating": "yes", "phone": "+44 1253 757158", "sport": "billiards", "website": "https://hogarthsbars.co.uk/newport/"}}, {"id": 6874316127, "lat": 51.5893654, "lon": -2.9960138, "tags": {"addr:city": "Newport", "addr:housenumber": "9", "addr:postcode": "NP20 1FU", "addr:street": "Market Street", "amenity": "pub", "check_date": "2022-02-28", "contact:facebook": "https://www.facebook.com/thecrosskeysnpt", "email": "jasondowding@googlemail.com", "name": "The Cross Keys", "opening_hours": "Mo-Th 00:00-01:00,10:00-00:00; Fr 09:00-00:00; Sa 00:00-03:00,09:00-00:00; Su 00:00-03:00,10:00-00:00", "phone": "+44 1633 264 373", "real_ale": "no", "sport": "billiards;darts", "wikidata": "Q80857343"}}, {"id": 6874316128, "lat": 51.5893105, "lon": -2.9962099, "tags": {"addr:city": "Newport", "addr:housenumber": "7-8", "addr:postcode": "NP20 1FU", "addr:street": "Market Street", "amenity": "bar", "contact:facebook": "https://www.facebook.com/Atlantica.Newport", "live_music": "yes", "music": "yes", "name": "Atlantica Bar & Club", "opening_hours": "Mo 00:00-03:00; Tu off; We off; Th off; Fr 20:00-24:00; Sa 00:00-04:00,18:00-24:00; Su 00:00-02:00,20:00-24:00", "opening_hours:covid19": "Mo 00:00-03:00; Tu Off; We Off; Th Off; Fr 20:00-00:00; Sa 00:00-04:00,18:00-00:00; Su 00:00-02:00,20:00-00:00", "phone": "+44 1633 252 611"}}, {"id": 6874316129, "lat": 51.5893291, "lon": -2.9961118, "tags": {"addr:city": "Newport", "addr:housenumber": "9A", "addr:postcode": "NP20 1FU", "addr:street": "Market Street", "amenity": "fast_food", "check_date": "2021-04-01", "contact:facebook": "https://www.facebook.com/pg/Atlantica.Newport/", "cuisine": "pizza;kebab", "drive_through": "no", "name": "Atlantica Snack Bar", "phone": "+44 1633 252611"}}, {"id": 6874463484, "lat": 51.5881087, "lon": -2.9960704, "tags": {"addr:city": "Newport", "addr:housenumber": "28", "addr:postcode": "NP20 1HB", "addr:street": "Skinner Lane", "amenity": "fast_food", "cuisine": "chicken", "drive_through": "no", "fhrs:id": "1418384", "name": "USA Chicken", "opening_hours": "Mo-Th 00:00-01:00,17:00-00:00; Fr 00:00-01:00,17:00-00:00; Sa-Su 00:00-02:00,17:00-00:00", "phone": "+44 1633 221 255", "source:addr:postcode": "FHRS Open Data", "website": "https://usachickennewport.com/"}}, {"id": 6874463523, "lat": 51.5877505, "lon": -2.9954206, "tags": {"addr:city": "Newport", "addr:housenumber": "3", "addr:postcode": "NP20 1DJ", "addr:street": "Corn Street", "alt_name": "The Continental", "amenity": "restaurant", "cuisine": "greek", "fhrs:id": "1177865", "name": "Continental Eaterie", "opening_hours": "Mo-Tu 09:30-18:00; We 10:00-20:00; Th-Sa 09:30-18:00; Su off", "opening_hours:covid19": "Mo-Tu 09:30-18:00; We 10:00-20:00; Th-Sa 09:30-18:00; Su Off", "phone": "+44 1633 670 601"}}, {"id": 7045117798, "lat": 51.5872626, "lon": -2.999554, "tags": {"addr:city": "Newport", "addr:housenumber": "3", "addr:postcode": "NP20 4BN", "addr:street": "Caxton Place", "amenity": "restaurant", "cuisine": "indian", "diet:gluten_free": "yes", "diet:halal": "yes", "diet:vegan": "yes", "diet:vegetarian": "yes", "fhrs:authority": "Newport", "fhrs:id": "920458", "name": "Taste of Asia", "opening_hours": "Mo 17:30-00:00; We-Su 17:30-00:00", "phone": "+44 1633 221333", "website": "https://www.tasteofasianewport.com/"}}, {"id": 8583418649, "lat": 51.5881609, "lon": -2.9958008, "tags": {"addr:city": "Newport", "addr:housenumber": "25", "addr:postcode": "NP20 1HB", "addr:street": "Skinner Street", "amenity": "cafe", "check_date:opening_hours": "2025-05-16", "contact:facebook": "https://www.facebook.com/thecuckoosnestsams/", "email": "aalsam@aol.com", "name": "Cuckoo's Nest Cafe", "opening_hours": "Mo-Sa 08:00-16:00; Su off", "outdoor_seating": "no"}}, {"id": 8583418676, "lat": 51.5890515, "lon": -2.996654, "tags": {"addr:city": "Newport", "addr:housenumber": "13", "addr:postcode": "NP20 1FU", "addr:street": "Market Street", "alt_name": "The Tickled Trout", "amenity": "restaurant", "bar": "yes", "brewery": "yes", "cuisine": "spanish;tapas", "fhrs:authority": "Newport", "fhrs:id": "1784438", "name": "The Tickled Trout", "opening_hours": "Mo-Sa 12:00-21:00; Su 12:00-17:30", "outdoor_seating": "no", "phone": "+44 1633 216 222", "reservation": "yes", "website": "https://www.tickledtrout.net/"}}, {"id": 8583418917, "lat": 51.5887273, "lon": -2.995876, "tags": {"addr:city": "Newport", "addr:housenumber": "3", "addr:postcode": "NP20 1GL", "addr:street": "Griffin Street", "amenity": "cafe", "contact:facebook": "https://www.facebook.com/thepotcafenewport/", "cuisine": "coffee_shop", "fhrs:id": "1750970", "internet_access": "yes", "internet_access:fee": "no", "name": "The Pot Cafe", "old_name": "Lisa's Kitchen", "opening_hours": "Mo-Sa 09:00-14:00; Su off", "outdoor_seating": "yes", "phone": "+44 1633 267755", "source": "survey", "toilets:wheelchair": "yes", "wheelchair": "yes"}}, {"id": 8583418966, "lat": 51.5879383, "lon": -2.9989317, "tags": {"addr:city": "Newport", "addr:housenumber": "7", "addr:postcode": "NP20 4AU", "addr:street": "Station Street", "amenity": "fast_food", "drive_through": "no", "email": "hello@thedirtyfoodco.com", "name": "Dirty Food Company", "opening_hours": "Mo-Su 17:00-22:00", "phone": "+44 1633 481 755", "website": "https://thedirtyfoodco.com/"}}, {"id": 9148537963, "lat": 51.5898162, "lon": -2.9988799, "tags": {"access": "yes", "amenity": "toilets", "changing_table": "yes", "fee": "no", "female": "yes", "level": "0", "opening_hours": "Mo-Su 08:00-24:00", "operator": "Transport for Wales", "portable": "no", "toilets:disposal": "flush", "toilets:handwashing": "yes", "toilets:position": "urinal;seated;inside", "wheelchair": "yes"}}, {"id": 9148537965, "lat": 51.5887391, "lon": -3.0001847, "tags": {"access": "yes", "amenity": "toilets", "changing_table": "yes", "fee": "no", "level": "0", "opening_hours": "Mo-Su 08:00-24:00", "operator": "Transport for Wales", "portable": "no", "toilets:disposal": "flush", "toilets:handwashing": "yes", "toilets:position": "urinal;seated;inside", "unisex": "yes", "wheelchair": "yes"}}, {"id": 9148537966, "lat": 51.5887638, "lon": -3.0001298, "tags": {"access": "yes", "amenity": "toilets", "changing_table": "yes", "fee": "no", "level": "0", "opening_hours": "Mo-Su 08:00-24:00", "operator": "Transport for Wales", "portable": "no", "toilets:disposal": "flush", "toilets:handwashing": "yes", "toilets:position": "urinal;seated;inside", "unisex": "yes", "wheelchair": "yes"}}, {"id": 9148537967, "lat": 51.5887985, "lon": -3.0008475, "tags": {"access": "yes", "amenity": "toilets", "changing_table": "yes", "fee": "no", "level": "0", "opening_hours": "Mo-Su 08:00-24:00", "operator": "Transport for Wales", "portable": "no", "toilets:disposal": "flush", "toilets:handwashing": "yes", "toilets:position": "urinal;seated;inside", "unisex": "yes", "wheelchair": "yes"}}, {"id": 9148537968, "lat": 51.5888273, "lon": -3.0008124, "tags": {"access": "yes", "amenity": "toilets", "changing_table": "yes", "fee": "no", "level": "0", "opening_hours": "Mo-Su 08:00-24:00", "operator": "Transport for Wales", "portable": "no", "toilets:disposal": "flush", "toilets:handwashing": "yes", "toilets:position": "urinal;seated;inside", "unisex": "yes", "wheelchair": "yes"}}, {"id": 9297805070, "lat": 51.5874625, "lon": -3.0000728, "tags": {"addr:city": "Newport", "addr:housenumber": "26", "addr:postcode": "NP20 4BG", "addr:street": "Bridge Street", "alt_name": "Coffee at 26", "amenity": "cafe", "cuisine": "coffee_shop", "name": "Coffee @ 26", "opening_hours": "Mo-Sa 07:30-18:00; Su Off", "outdoor_seating": "no", "proposed:amenity": "bar", "source": "public_notice"}}, {"id": 9509336701, "lat": 51.589183, "lon": -2.9959565, "tags": {"addr:city": "Newport", "addr:housename": "Newport Market", "addr:postcode": "NP20 1FX", "addr:street": "High Street", "addr:unit": "Stall M0.5", "alt_name": "Whocult Shakes & Donuts", "amenity": "fast_food", "cuisine": "donut;shakes;coffee_shop", "drive_through": "no", "email": "info@whocult.com", "level": "0", "name": "Whocult Shakes and Donuts", "opening_hours": "Mo-Tu off; We-Th 10:00-18:00; Fr-Sa 10:00-21:00; Su 10:00-16:00", "phone": "+44 1656 648 537", "website": "https://www.whocult.com/"}}, {"id": 9509336702, "lat": 51.5889628, "lon": -2.9959134, "tags": {"addr:city": "Newport", "addr:housename": "Newport Market", "addr:postcode": "NP20 1FX", "addr:street": "High Street", "addr:unit": "Stall F0.10", "amenity": "restaurant", "cuisine": "japanese", "email": "info@luckygods.com", "fhrs:id": "1494607", "level": "0", "name": "Seven Lucky Gods Newport", "opening_hours": "Mo-Fr 12:00-22:00; Sa 12:00-22:00; Su 12:00-22:00", "phone": "+44 1179 291 310", "start_date": "2022-03-11", "website": "https://7luckygods.com/"}}, {"id": 9509336705, "lat": 51.5887859, "lon": -2.9964902, "tags": {"addr:city": "Newport", "addr:housename": "Newport Market", "addr:postcode": "NP20 1FX", "addr:street": "High Street", "addr:unit": "Stall M0.26", "amenity": "restaurant", "cuisine": "italian", "level": "0", "name": "Ostuni", "opening_hours": "Mo Off; Tu Off; We-Su 10:00-17:00", "start_date": "2022-03-11"}}, {"id": 9509336708, "lat": 51.5889009, "lon": -2.9961801, "tags": {"addr:city": "Newport", "addr:housename": "Newport Market", "addr:postcode": "NP20 1FX", "addr:street": "High Street", "addr:unit": "Stall F0.7", "amenity": "restaurant", "cuisine": "thai", "diet:vegan": "yes", "diet:vegetarian": "yes", "email": "kinnkinneats@gmail.com", "fhrs:authority": "Newport", "fhrs:id": "1497530", "level": "0", "name": "Kinn Kinn Thai", "opening_hours": "Mo Off; We-Sa 12:00-20:30; Su 12:00-15:30", "start_date": "2022-03-11", "website": "https://newport-market.co.uk/food/supa-thai-vegan/"}}, {"id": 9509336711, "lat": 51.5890239, "lon": -2.9959588, "tags": {"addr:city": "Newport", "addr:housename": "Newport Market", "addr:postcode": "NP20 1DD", "addr:street": "High Street", "addr:unit": "Stall FC0.11", "alt_name": "Academy & Market Bar", "amenity": "cafe", "cuisine": "coffee_shop", "fhrs:id": "1475414", "level": "0", "name": "Academy Coffee Newport", "opening_hours": "Mo-Tu 09:00-17:00; We-Sa 09:00-22:00; Su 10:00-17:00", "start_date": "2022-03-11", "website": "https://www.academycoffee.co.uk/newport-market"}}, {"id": 9510754911, "lat": 51.5888065, "lon": -2.9983767, "tags": {"access": "customers", "amenity": "toilets", "female": "yes", "hot_water": "yes", "opening_hours": "Mo-Fr 08:00-00:00; Sa 00:00-01:00,08:00-00:00; Su 00:00-01:00,08:00-00:00", "operator": "JD Wetherspoon", "shower": "no", "supervised": "no", "toilets:disposal": "flush", "toilets:hands_drying": "electric_hand_dryer", "toilets:handwashing": "yes", "toilets:paper_supplied": "yes", "toilets:position": "seated", "wheelchair": "no"}}, {"id": 9510754912, "lat": 51.588853, "lon": -2.9983905, "tags": {"access": "customers", "amenity": "toilets", "hot_water": "yes", "male": "yes", "opening_hours": "Mo-Fr 08:00-00:00; Sa 00:00-01:00,08:00-00:00; Su 00:00-01:00,08:00-00:00", "operator": "JD Wetherspoon", "shower": "no", "supervised": "no", "toilets:disposal": "flush", "toilets:hands_drying": "electric_hand_dryer", "toilets:handwashing": "yes", "toilets:paper_supplied": "yes", "toilets:position": "seated;urinal", "wheelchair": "no"}}, {"id": 9510754913, "lat": 51.5894489, "lon": -2.9969371, "tags": {"access": "customers", "amenity": "toilets", "changing_table": "no", "fee": "no", "hot_water": "yes", "male": "yes", "opening_hours": "Mo 00:00-02:00,16:30-00:00; Tu-Th 00:00-02:00,16:30-00:00; Fr 00:00-02:00,12:00-00:00; Sa 00:00-03:00,12:00-00:00; Su 00:00-03:00,16:30-24:00", "operator": "Le Pub", "shower": "no", "supervised": "no", "toilets:disposal": "flush", "toilets:hands_drying": "electric_hand_dryer", "toilets:handwashing": "yes", "toilets:paper_supplied": "yes", "toilets:position": "seated;urinal", "wheelchair": "no"}}, {"id": 9510754914, "lat": 51.5894169, "lon": -2.9969494, "tags": {"access": "customers", "amenity": "toilets", "changing_table": "no", "fee": "no", "female": "yes", "hot_water": "yes", "opening_hours": "Mo 00:00-02:00,16:30-00:00; Tu-Th 00:00-02:00,16:30-00:00; Fr 00:00-02:00,12:00-00:00; Sa 00:00-03:00,12:00-00:00; Su 00:00-03:00,16:30-24:00", "operator": "Le Pub", "shower": "no", "supervised": "no", "toilets:disposal": "flush", "toilets:hands_drying": "electric_hand_dryer", "toilets:handwashing": "yes", "toilets:paper_supplied": "yes", "toilets:position": "seated", "wheelchair": "no"}}, {"id": 9510754915, "lat": 51.5896113, "lon": -2.9966576, "tags": {"access": "customers", "amenity": "toilets", "changing_table": "no", "fee": "no", "hot_water": "yes", "male": "yes", "opening_hours": "Mo-Th 10:00-23:00; Fr 10:00-00:00; Sa 11:00-00:00; Su 00:00-02:00, 12:00-23:00", "opening_hours:covid19": "Mo-Th 10:00-23:00; Fr 10:00-00:00; Sa 11:00-00:00; Su 00:00-02:00,12:00-23:00", "operator": "JW Bassett", "shower": "no", "supervised": "no", "toilets:disposal": "flush", "toilets:hands_drying": "electric_hand_dryer", "toilets:handwashing": "yes", "toilets:paper_supplied": "yes", "toilets:position": "seated;urinal", "wheelchair": "no"}}, {"id": 9510754916, "lat": 51.589595, "lon": -2.9966862, "tags": {"access": "customers", "amenity": "toilets", "changing_table": "no", "fee": "no", "female": "yes", "hot_water": "yes", "opening_hours": "Mo-Th 10:00-23:00; Fr 10:00-00:00; Sa 11:00-00:00; Su 00:00-02:00, 12:00-23:00", "opening_hours:covid19": "Mo-Th 10:00-23:00; Fr 10:00-00:00; Sa 11:00-00:00; Su 00:00-02:00,12:00-23:00", "operator": "JW Bassett", "shower": "no", "supervised": "no", "toilets:disposal": "flush", "toilets:hands_drying": "electric_hand_dryer", "toilets:handwashing": "yes", "toilets:paper_supplied": "yes", "toilets:position": "seated", "wheelchair": "no"}}, {"id": 9510813717, "lat": 51.588937, "lon": -2.996709, "tags": {"access": "customers", "amenity": "toilets", "disused:amenity": "toilets", "hot_water": "yes", "level": "-1", "male": "yes", "opening_hours": "Su-Th 12:00-23:00; Fr 12:00-00:00; Sa 00:00-01:00,12:00-00:00; Su 00:00-01:00", "operator": "Tiny Rebel", "shower": "no", "supervised": "no", "toilets:disposal": "flush", "toilets:hands_drying": "electric_hand_dryer", "toilets:handwashing": "yes", "toilets:paper_supplied": "yes", "toilets:position": "seated;urinal", "wheelchair": "no"}}, {"id": 9510813718, "lat": 51.5889195, "lon": -2.996695, "tags": {"access": "customers", "amenity": "toilets", "disused:amenity": "toilets", "female": "yes", "hot_water": "yes", "level": "-1", "opening_hours": "Su-Th 12:00-23:00; Fr 12:00-00:00; Sa 00:00-01:00,12:00-00:00; Su 00:00-01:00", "operator": "Tiny Rebel", "shower": "no", "supervised": "no", "toilets:disposal": "flush", "toilets:hands_drying": "electric_hand_dryer", "toilets:handwashing": "yes", "toilets:paper_supplied": "yes", "toilets:position": "seated", "wheelchair": "no"}}, {"id": 9510813721, "lat": 51.5877816, "lon": -2.9948151, "tags": {"access": "customers", "amenity": "toilets", "hot_water": "yes", "male": "yes", "opening_hours": "Mo-Th 09:00-23:00; Fr 09:00-00:00; Sa 00:00-01:00,09:00-00:00; Su 00:00-01:00,12:00-22:30", "operator": "The Potters", "shower": "no", "supervised": "no", "toilets:disposal": "flush", "toilets:hands_drying": "electric_hand_dryer", "toilets:handwashing": "yes", "toilets:paper_supplied": "yes", "toilets:position": "seated;urinal", "wheelchair": "no"}}, {"id": 9510813722, "lat": 51.5877641, "lon": -2.9948455, "tags": {"access": "customers", "amenity": "toilets", "female": "yes", "hot_water": "yes", "opening_hours": "Mo-Th 09:00-23:00; Fr 09:00-00:00; Sa 00:00-01:00,09:00-00:00; Su 00:00-01:00,12:00-22:30", "operator": "The Potters", "shower": "no", "supervised": "no", "toilets:disposal": "flush", "toilets:hands_drying": "electric_hand_dryer", "toilets:handwashing": "yes", "toilets:paper_supplied": "yes", "toilets:position": "seated", "wheelchair": "no"}}, {"id": 9510813725, "lat": 51.5873145, "lon": -2.9972562, "tags": {"access": "customers", "amenity": "toilets", "hot_water": "yes", "male": "yes", "opening_hours": "Mo-Th 10:00-23:00; Fr-Sa 10:00-00:00; Su 11:00-22:30", "operator": "JW Bassett", "shower": "no", "supervised": "no", "toilets:disposal": "flush", "toilets:hands_drying": "electric_hand_dryer", "toilets:handwashing": "yes", "toilets:paper_supplied": "yes", "toilets:position": "seated;urinal", "wheelchair": "no"}}, {"id": 9510813726, "lat": 51.587297, "lon": -2.9972865, "tags": {"access": "customers", "amenity": "toilets", "female": "yes", "hot_water": "yes", "opening_hours": "Mo-Th 10:00-23:00; Fr-Sa 10:00-00:00; Su 11:00-22:30", "operator": "JW Bassett", "shower": "no", "supervised": "no", "toilets:disposal": "flush", "toilets:hands_drying": "electric_hand_dryer", "toilets:handwashing": "yes", "toilets:paper_supplied": "yes", "toilets:position": "seated", "wheelchair": "no"}}, {"id": 9512405013, "lat": 51.5890759, "lon": -2.9961745, "tags": {"addr:city": "Newport", "addr:housename": "Newport Market", "addr:postcode": "NP20 1FX", "addr:street": "High Street", "addr:unit": "Stall F0.3", "alt_name": "Pizza Boyz", "amenity": "restaurant", "cuisine": "pizza", "fhrs:authority": "Newport", "fhrs:id": "1760685", "level": "0", "name": "Pizza Boys", "opening_hours": "Mo Off; Tu Off; We-Sa 12:00-22:00; Su 12:00-17:00", "start_date": "2024-10-07", "website": "https://newport-market.co.uk/food/the-pizza-boyz/"}}, {"id": 9522615331, "lat": 51.5888622, "lon": -2.9963307, "tags": {"addr:city": "Newport", "addr:postcode": "NP20 1FX", "addr:street": "High Street", "addr:unit": "Stall F0.6", "amenity": "restaurant", "cuisine": "italian", "fhrs:authority": "Newport", "fhrs:id": "1613364", "level": "0", "name": "The Italian Job", "opening_hours": "Mo-Tu off; We-Sa 12:00-22:00; Su 12:00-17:00", "shop": "alcohol", "start_date": "2022-03-11", "website": "https://newport-market.co.uk/food/the-italian-job/"}}, {"id": 9533557940, "lat": 51.5875962, "lon": -2.9986381, "tags": {"addr:city": "Newport", "addr:housenumber": "19", "addr:postcode": "NP20 4AN", "addr:street": "Bridge Street", "amenity": "restaurant", "cuisine": "bar_and_grill;seafood", "email": "hello@qnewport.com", "name": "Queens Bar & Brasserie", "opening_hours": "Mo-Sa 12:00-21:30; Su 12:00-17:00", "phone": "+44 1633 836836", "start_date": "2022-03-01", "website": "https://www.queensbnb.com/"}}, {"id": 9604060769, "lat": 51.5891015, "lon": -2.9960741, "tags": {"addr:city": "Newport", "addr:housename": "Newport Market", "addr:postcode": "NP20 1FX", "addr:street": "Market Street", "addr:unit": "Stall F0.2", "amenity": "restaurant", "cuisine": "indian", "level": "0", "name": "Masala Craft", "opening_hours": "Mo off; We-Sa 12:00-22:00; Su 12:00-17:00", "website": "https://newport-market.co.uk/food/banh-wagon/"}}, {"id": 9604060770, "lat": 51.589053, "lon": -2.9962712, "tags": {"addr:city": "Newport", "addr:housename": "Newport Market", "addr:postcode": "NP20 1FX", "addr:street": "Market Street", "addr:unit": "Stall F0.4", "amenity": "restaurant", "cuisine": "greek", "email": "info@meatandgreek.co.uk", "fhrs:authority": "Newport", "fhrs:id": "1475428", "level": "0", "name": "Meat and Greek", "opening_hours": "Mo off; Tu off; We-Sa 12:00-22:00; Su 12:00-17:00", "opening_hours:covid19": "Mo Off; Tu Off; We-Sa 12:00-22:00; Su 12:00-17:00", "website": "http://www.meatandgreek.co.uk/"}}, {"id": 9604060772, "lat": 51.5889237, "lon": -2.9960768, "tags": {"addr:city": "Newport", "addr:housename": "Newport Market", "addr:postcode": "NP20 1FX", "addr:street": "High Street", "addr:unit": "Stall F0.8", "amenity": "restaurant", "check_date": "2022-08-14", "contact:facebook": "https://www.facebook.com/people/The-Greedy-Bear/100080915071138/", "cuisine": "malaysian", "fhrs:authority": "Newport", "fhrs:id": "1456152", "level": "0", "name": "The Greedy Bear", "opening_hours": "Mo off; Tu off; We-Sa 12:00-22:00; Su 12:00-17:00", "opening_hours:covid19": "Mo Off; Tu Off; We-Sa 12:00-22:00; Su 12:00-17:00"}}, {"id": 9604060773, "lat": 51.5889481, "lon": -2.9959894, "tags": {"addr:city": "Newport", "addr:housename": "Newport Market", "addr:postcode": "NP20 1FX", "addr:street": "High Street", "addr:unit": "Stall F0.9", "amenity": "fast_food", "cuisine": "burger", "email": "burger.boyz@outlook.com", "fhrs:authority": "Newport", "fhrs:id": "1475415", "level": "0", "name": "Burger Boyz", "opening_hours": "Mo off; Tu off; We-Sa 12:00-22:00; Su 12:00-17:00", "opening_hours:covid19": "Mo Off; Tu Off; We-Sa 12:00-22:00; Su 12:00-17:00", "website": "https://www.burgerboyzzz.com/"}}, {"id": 9604060787, "lat": 51.588853, "lon": -2.9958617, "tags": {"access": "key", "amenity": "toilets", "changing_table": "no", "fee": "no", "hot_water": "yes", "level": "0", "male": "yes", "opening_hours": "Mo-Tu 09:00-17:00; We-Sa 09:00-22:00; Su 10:00-17:00", "operator": "Newport Market", "shower": "no", "supervised": "no", "toilets:disposal": "flush", "toilets:hands_drying": "electric_hand_dryer", "toilets:handwashing": "yes", "toilets:paper_supplied": "yes", "toilets:position": "seated;urinal", "wheelchair": "no"}}, {"id": 9604060788, "lat": 51.5887368, "lon": -2.9964616, "tags": {"access": "key", "amenity": "toilets", "changing_table": "no", "fee": "no", "hot_water": "yes", "level": "0", "opening_hours": "Mo-Tu 09:00-17:00; We-Sa 09:00-22:00; Su 10:00-17:00", "operator": "Newport Market", "shower": "no", "supervised": "no", "toilets:disposal": "flush", "toilets:hands_drying": "electric_hand_dryer", "toilets:handwashing": "yes", "toilets:paper_supplied": "yes", "toilets:position": "seated", "unisex": "yes", "wheelchair": "yes"}}, {"id": 9604060793, "lat": 51.5890332, "lon": -2.996463, "tags": {"addr:city": "Newport", "addr:housename": "Newport Market", "addr:postcode": "NP20 1FX", "addr:street": "High Street", "addr:unit": "Stall M0.10", "amenity": "fast_food", "cuisine": "cheese", "drive_through": "no", "level": "0", "name": "Shmoles", "opening_hours": "Mo-Th Off; Fr-Sa 12:00-18:00; Su 12:00-16:00"}}, {"id": 9604060795, "lat": 51.5889009, "lon": -2.995961, "tags": {"addr:city": "Newport", "addr:housename": "Newport Market", "addr:postcode": "NP20 1FX", "addr:street": "High Street", "addr:unit": "Stall M0.12", "amenity": "restaurant", "cuisine": "polish", "level": "0", "name": "Krakow Xpress", "opening_hours": "Mo-Tu 09:00-17:00; We-Sa 09:00-20:00; Su 10:00-17:00", "outdoor_seating": "no", "website": "https://www.instagram.com/bobago__/"}}, {"id": 9604060796, "lat": 51.5888848, "lon": -2.9960308, "tags": {"addr:city": "Newport", "addr:housename": "Newport Market", "addr:postcode": "NP20 1FX", "addr:street": "High Street", "addr:unit": "Stall M0.13", "amenity": "restaurant", "cuisine": "korean", "diet:gluten_free": "yes", "diet:lactose_free": "yes", "level": "0", "name": "K-Way", "opening_hours": "Mo-Tu 09:00-17:00; We-Sa 09:00-20:00; Su 10:00-17:00", "start_date": "2024-08-07"}}, {"id": 9604060803, "lat": 51.5889596, "lon": -2.9965018, "tags": {"addr:city": "Newport", "addr:housename": "Newport Market", "addr:postcode": "NP20 1FX", "addr:street": "High Street", "addr:unit": "Stall M0.17", "amenity": "fast_food", "cuisine": "juice", "drive_through": "no", "level": "0", "name": "Jamiesons", "opening_hours": "Mo off; Tu off; We-Sa 09:30-17:00; Su 10:00-16:00", "start_date": "2022-03-11", "website": "https://www.instagram.com/jjf_npt22/"}}, {"id": 9723440368, "lat": 51.5887124, "lon": -2.9964487, "tags": {"access": "key", "amenity": "toilets", "changing_table": "no", "fee": "no", "hot_water": "yes", "level": "0", "male": "yes", "opening_hours": "Mo-Tu 09:00-17:00; We-Sa 09:00-22:00; Su 10:00-17:00", "operator": "Newport Market", "shower": "no", "supervised": "no", "toilets:disposal": "flush", "toilets:hands_drying": "electric_hand_dryer", "toilets:handwashing": "yes", "toilets:paper_supplied": "yes", "toilets:position": "seated;urinal", "wheelchair": "no"}}, {"id": 9736126124, "lat": 51.5886644, "lon": -2.9956814, "tags": {"addr:city": "Newport", "addr:housenumber": "185", "addr:postcode": "NP20 1DG", "addr:street": "Upper Dock Street", "amenity": "fast_food", "cuisine": "kebab", "drive_through": "no", "name": "Yummies", "opening_hours": "Su-Th 15:00-01:45, Fr-Sa 15:00-02:45", "website": "https://www.just-eat.co.uk/restaurants-yummiesnp20/menu"}}, {"id": 9779039989, "lat": 51.5889321, "lon": -2.9956912, "tags": {"addr:city": "Newport", "addr:housename": "Newport Market", "addr:housenumber": "188", "addr:postcode": "NP20 1FX", "addr:street": "Upper Dock Street", "addr:unit": "Unit 6", "amenity": "restaurant", "bar": "no", "contact:facebook": "https://www.facebook.com/people/Cairo-Corner-Newport/100094465561073/", "cuisine": "egyptian;hummus;falafel;street_food", "drive_through": "no", "level": "0", "name": "Cairo Corner", "opening_hours": "Mo-Tu 07:00-22:00; We Off; Th-Fr 07:00-22:00; Sa-Su 10:00-22:00"}}, {"id": 9829545203, "lat": 51.5871552, "lon": -3.0022737, "tags": {"addr:city": "Newport", "addr:housenumber": "42", "addr:postcode": "NP20 4NY", "addr:street": "Bridge Street", "amenity": "restaurant", "check_date:opening_hours": "2025-05-16", "email": "info@gem42.co.uk", "fhrs:authority": "Newport", "fhrs:id": "657572", "name": "Gem 42", "opening_hours": "Mo-Sa 17:30-22:30; Su off; PH off", "phone": "+44 1633 287 591", "website": "https://www.gem42.co.uk"}}, {"id": 9829571043, "lat": 51.5872516, "lon": -3.0028443, "tags": {"addr:city": "Newport", "addr:housenumber": "35", "addr:postcode": "NP20 4NZ", "addr:street": "Clytha Park Road", "amenity": "fast_food", "cuisine": "fish_and_chips", "drive_through": "no", "fhrs:authority": "Newport", "fhrs:id": "200594", "name": "Harbour Fish Bar", "opening_hours": "Mo-Sa 12:00-22:30; Su 17:00-22:00"}}, {"id": 9876800667, "lat": 51.5888301, "lon": -2.9972216, "tags": {"addr:city": "Newport", "addr:housenumber": "44", "addr:postcode": "NP20 1GD", "addr:street": "High Street", "amenity": "cafe", "contact:facebook": "https://www.facebook.com/Arcadiacoffeehouse", "cuisine": "coffee_shop", "internet_access": "yes", "name": "Arcadia Coffee House", "opening_hours": "Mo-Sa 08:00-16:00; Su off; PH off", "outdoor_seating": "no", "start_date": "2022-11-25"}}, {"id": 9879581805, "lat": 51.5888739, "lon": -2.9977506, "tags": {"addr:city": "Newport", "addr:housenumber": "34", "addr:postcode": "NP20 4AB", "addr:street": "Cambrian Road", "addr:unit": "7", "amenity": "fast_food", "cuisine": "chicken;wraps;burger", "drive_through": "no", "name": "The Icons Kitchen", "opening_hours": "Mo Off; Tu-Th 13:00-23:00; Fr-Sa 15:00-16:00; Su 13:00-23:00", "phone": "+44 7532 817 761"}}, {"id": 9924846864, "lat": 51.5873519, "lon": -2.9988946, "tags": {"addr:city": "Newport", "addr:housenumber": "18", "addr:postcode": "NP20 4BP", "addr:street": "Baneswell Road", "amenity": "cafe", "check_date": "2022-10-05", "contact:facebook": "https://www.facebook.com/TheLittleTap", "cuisine": "coffee_shop", "name": "F'Coffi", "opening_hours": "Mo-Sa 08:00-15:00; Su Off", "outdoor_seating": "no"}}, {"id": 9953125858, "lat": 51.588733, "lon": -2.9968666, "tags": {"addr:city": "Newport", "addr:housename": "Newport Market", "addr:postcode": "NP20 1FX", "addr:street": "High Street", "addr:unit": "Unit H1", "amenity": "bar", "fhrs:authority": "Newport", "fhrs:id": "1475430", "level": "0", "name": "Sip", "opening_hours": "Mo off; Tu off; We-Sa 12:00-22:00; Su 12:00-17:00", "outdoor_seating": "yes", "website": "https://newport-market.co.uk/food/sip/", "wheelchair": "yes"}}, {"id": 9981881029, "lat": 51.5892399, "lon": -2.9959102, "tags": {"access": "key", "amenity": "toilets", "changing_table": "no", "fee": "no", "hot_water": "yes", "level": "0", "male": "yes", "opening_hours": "Mo-Tu 09:00-17:00; We-Sa 09:00-22:00; Su 10:00-17:00", "operator": "Newport Market", "shower": "no", "supervised": "no", "toilets:disposal": "flush", "toilets:hands_drying": "electric_hand_dryer", "toilets:handwashing": "yes", "toilets:paper_supplied": "yes", "toilets:position": "seated;urinal", "wheelchair": "no"}}, {"id": 10040786217, "lat": 51.5890609, "lon": -2.9960097, "tags": {"access": "yes", "amenity": "drinking_water", "bottle": "yes", "covered": "yes", "fee": "no", "indoor": "yes", "level": "0", "lit": "yes", "operator": "Newport Market", "wheelchair": "yes"}}, {"id": 10135735270, "lat": 51.5886977, "lon": -3.0012412, "tags": {"addr:city": "Newport", "addr:place": "Newport railway station", "addr:postcode": "NP20 4AX", "addr:street": "Devon Place", "amenity": "cafe", "cuisine": "coffee_shop", "indoor_seating": "yes", "name": "Hi Coffee", "outdoor_seating": "no"}}, {"id": 10140247787, "lat": 51.5890184, "lon": -2.9964118, "tags": {"addr:city": "Newport", "addr:housename": "Newport Market", "addr:postcode": "NP20 1FX", "addr:street": "High Street", "addr:unit": "Stand F0.5", "amenity": "restaurant", "cuisine": "mexican", "fhrs:authority": "Newport", "fhrs:id": "1568679", "level": "0", "name": "Bab Haus Mex", "opening_hours": "Mo off; Tu off; We-Sa 12:00-22:00; Su 12:00-17:00", "website": "https://newport-market.co.uk/food/bab-haus-mex/"}}, {"id": 10160359261, "lat": 51.5890196, "lon": -2.9956973, "tags": {"addr:city": "Newport", "addr:postcode": "NP20 1DB", "addr:street": "Upper Dock Street", "addr:unit": "Unit 4", "air_conditioning": "yes", "amenity": "restaurant", "bar": "no", "capacity": "15", "cuisine": "sri_lankan", "delivery": "yes", "diet:halal": "yes", "diet:vegetarian": "yes", "drive_through": "no", "microbrewery": "no", "name": "Heritage House", "opening_hours": "Mo Off; Tu-Sa 12:00-22:00; Su Off", "outdoor_seating": "no", "reservation": "no", "start_date": "2023-04-01", "takeaway": "yes", "toilets": "no", "wheelchair": "yes"}}, {"id": 10731394636, "lat": 51.58721, "lon": -2.9997457, "tags": {"addr:city": "Newport", "addr:housenumber": "1", "addr:postcode": "NP20 4BN", "addr:street": "Caxton Place", "amenity": "fast_food", "cuisine": "burger", "name": "Firebun"}}, {"id": 10797112671, "lat": 51.5932337, "lon": -3.0542105, "tags": {"addr:city": "Newport", "addr:housenumber": "157", "addr:postcode": "NP10 9AS", "addr:street": "Cefn Road", "amenity": "pub", "brewery": "Brains", "email": "candccaterersltd@outlook.com", "name": "Tredegar Arms", "opening_hours": "Mo-Sa 12:00-23:00; Su 12:00-22:30", "phone": "+44 1633 547 553", "wikidata": "Q80582976"}}, {"id": 10937128447, "lat": 51.5881348, "lon": -2.995726, "tags": {"access": "customers", "amenity": "toilets", "changing_table": "no", "fee": "yes", "level": "-1", "opening_hours": "24/7", "operator": "Spokesafe", "toilets:disposal": "flush", "toilets:handwashing": "yes", "unisex": "yes", "wheelchair": "no"}}, {"id": 11091444063, "lat": 51.5886828, "lon": -2.998321, "tags": {"addr:city": "Newport", "addr:postcode": "NP20 4AD", "addr:unit": "Unit B5", "alt_name": "King's Sports Bar", "amenity": "bar", "bar:type": "sports", "billiards:pool": "1", "email": "kingssportsbar@hotmail.com", "level": "1", "music": "yes", "name": "Kings Sports Bar", "opening_hours": "Mo-Su 10:00-00:00", "outdoor_seating": "no", "sport": "billiards;table_tennis;darts;pool;snooker", "wheelchair": "yes"}}, {"id": 11113478079, "lat": 51.5896267, "lon": -2.9983989, "tags": {"addr:city": "Newport", "addr:housename": "Old Station Building", "addr:postcode": "NP20 4AX", "addr:street": "Queensway", "amenity": "cafe", "cuisine": "coffee_shop", "email": "da@tramshedtech.co.uk", "level": "0", "name": "Da Cafe Newport", "opening_hours": "Mo-Fr 07:30-15:30; Sa Off; Su Off", "outdoor_seating": "no", "phone": "+44 2920 103 090", "website": "https://www.tramshedtech.co.uk/en/da/"}}, {"id": 11519951180, "lat": 51.5913623, "lon": -3.0562928, "tags": {"addr:city": "Newport", "addr:housename": "Faith Church", "addr:place": "Wern Industrial Estate", "addr:postcode": "NP20 9FQ", "amenity": "cafe", "cuisine": "coffee_shop", "email": "theloadingbay@faithchurch.wales", "fax": "+447462047543", "fhrs:id": "1171735", "name": "The Loading Bay", "opening_hours": "Mo-Fr 09:30-17:30; Sa Off; Su Off", "outdoor_seating": "no", "payment:cash": "yes", "sport": "billiards", "website": "https://www.faithchurch.wales/"}}, {"id": 12093601800, "lat": 51.589004, "lon": -2.9959849, "tags": {"addr:city": "Newport", "addr:housename": "Newport Market", "addr:postcode": "NP20 1DD", "addr:street": "High Street", "addr:unit": "Stall FC0.11", "alt_name": "Academy & Market Bar", "amenity": "bar", "fhrs:authority": "Newport", "level": "0", "name": "Academy Bar Newport", "opening_hours": "Mo-Tu 09:00-17:00; We-Sa 09:00-22:00; Su 10:00-17:00", "start_date": "2022-03-11", "website": "https://www.academycoffee.co.uk/newport-market"}}, {"id": 12403514572, "lat": 51.5889456, "lon": -2.9959064, "tags": {"addr:city": "Newport", "addr:housename": "Newport Market", "addr:postcode": "NP20 1FX", "addr:street": "High Street", "amenity": "cafe", "cuisine": "coffee_shop", "level": "0", "name": "London Cutting Co", "opening_hours": "Mo Off; Tu Off; We-Su 11:00-19:00", "takeaway": "yes", "website": "https://www.instagram.com/londoncuttingco/"}}, {"id": 12609801028, "lat": 51.5895892, "lon": -2.9969226, "tags": {"addr:city": "Newport", "addr:housenumber": "11c", "addr:postcode": "NP20 1FQ", "addr:street": "High Street", "alt_name": "Lotus Bar & Club", "amenity": "bar", "name": "Lotus Lounge", "name:en": "The Lotus Lounge at MJJ"}}, {"id": 12707309097, "lat": 51.5889483, "lon": -2.997767, "tags": {"addr:city": "Newport", "addr:housenumber": "38", "addr:postcode": "NP20 1GD", "addr:street": "Cambrian Road", "amenity": "bar", "name": "Rooty\u2019s"}}, {"id": 13057746801, "lat": 51.5889327, "lon": -2.9963357, "tags": {"addr:postcode": "NP20 1FX", "addr:street": "High Street", "amenity": "restaurant", "contact:facebook": "keralankaravan", "contact:instagram": "keralankaravan", "contact:twitter": "keralankaravan", "cuisine": "indian", "email": "hello@keralankaravan.co.uk", "name": "Keralan Karavan", "opening_hours": "We-Sa 12:00-21:00; Su 12:00-16:00", "phone": "+44 7359 785414", "website": "https://keralankaravan.co.uk/newport-market/"}}, {"id": 10141137828, "lat": 51.6261305, "lon": -3.1880261, "tags": {"addr:city": "Ynysddu", "addr:postcode": "NP11 7JW", "addr:street": "Bridge Street", "amenity": "pub", "bar": "yes", "email": "sadie03@hotmail.co.uk", "name": "Ynysddu Hotel Pub", "opening_hours": "Mo off; Tu 16:00-23:00; We-Su 12:00-23:00", "phone": "+44 1495 200 281", "reservation": "required", "website": "https://www.facebook.com/YnysdduHotel/"}}, {"id": 11246943366, "lat": 51.6457343, "lon": -3.1929482, "tags": {"addr:city": "Pontllanfraith", "addr:postcode": "NP12 2HT", "addr:street": "Upper Gelligroes", "addr:suburb": "Wyllie", "amenity": "pub", "brewery": "yes", "contact:facebook": "https://www.facebook.com/profile.php?id=61551116224927", "email": "info@thehalfwayhouse.wales", "name": "The Halfway House", "opening_hours": "Mo-Th 12:00-15:00,18:00-00:00; Fr-Su 12:00-00:00", "outdoor_seating": "yes", "phone": "+44 1495 220 255", "wikidata": "Q80856964"}}, {"id": 13076220662, "lat": 51.6654054, "lon": -3.1896511, "tags": {"addr:city": "Blackwood", "addr:postcode": "NP12 0PN", "addr:street": "Park Terrace", "addr:suburb": "Woodfieldside", "amenity": "restaurant", "bar": "yes", "cuisine": "bistro", "email": "bistro8pub@gmail.com", "name": "Bistro 8 Blackwood", "opening_hours": "Mo-Th 12:00-14:00,17:00-22:00; Fr 12:00-14:00,17:00-22:30; Sa 12:00-21:30; Su 12:00-17:00", "outdoor_seating": "yes", "phone": "+441495224200", "toilets": "yes", "website": "https://www.bistro-8.com/"}}, {"id": 498878878, "lat": 51.7840727, "lon": -3.2691366, "tags": {"amenity": "cafe", "cuisine": "sandwich;coffee_shop;ice_cream", "internet_access": "wlan", "name": "Lake View Cafe", "opening_hours": "Mo-Fr 10:00-16:30; Sa-Su 09:00-16:30", "outdoor_seating": "yes", "website": "https://www.parcbrynbach.co.uk/cafe"}}, {"id": 7929807887, "lat": 51.78076, "lon": -3.2421702, "tags": {"addr:city": "Tredegar", "addr:postcode": "NP22 4QD", "addr:street": "Dukestown Road", "amenity": "pub", "brewery": "Brains", "email": "therailway121@gmail.com", "name": "The Railway Tavern", "name:cy": "Tafarn y Rheilffordd", "opening_hours": "Mo off; Tu off; We-Th 17:00-23:00; Fr 13:00-15:30; Sa 17:00-23:00; Su 12:00-17:00", "opening_hours:covid19": "Mo Off; Tu Off; We-Th 17:00-23:00; Fr 13:00-15:30; Sa 17:00-23:00; Su 12:00-17:00", "phone": "+44 1495 722 574", "smoking": "separated", "website": "https://therailwaytredegar.com/", "wikidata": "Q80857470"}}, {"id": 12465040110, "lat": 51.7814315, "lon": -3.2444751, "tags": {"amenity": "fuel"}}, {"id": 13037314067, "lat": 51.7777838, "lon": -3.3643839, "tags": {"amenity": "toilets", "changing_table": "yes", "fee": "no", "wheelchair": "yes"}}, {"id": 10101961448, "lat": 51.6025598, "lon": -3.0080168, "tags": {"addr:city": "Newport", "addr:postcode": "NP20 5QB", "addr:street": "Malpas Road", "alt_name": "Pavilion Cafe", "amenity": "cafe", "cuisine": "coffee_shop", "name": "Pavilion Coffee", "opening_hours": "Mo-Fr 09:00-14:00; Sa 09:00-12:30; Su off", "outdoor_seating": "yes", "phone": "+44 1633 854 749", "website": "https://www.instagram.com/thepavilioncoffeeshop"}}], "ways": []}